{
    "links": {
        "self": "http://www.neowsapp.com/rest/v1/neo/3043885?api_key=iIulBulltgU6a56xZRHN4H3l9WmuAYTsLGpBGhQ2"
    },
    "id": "3043885",
    "neo_reference_id": "3043885",
    "name": "(2000 KE41)",
    "designation": "2000 KE41",
    "nasa_jpl_url": "http://ssd.jpl.nasa.gov/sbdb.cgi?sstr=3043885",
    "absolute_magnitude_h": 17.4,
    "estimated_diameter": {
        "kilometers": {
            "estimated_diameter_min": 0.8801465209,
            "estimated_diameter_max": 1.9680674509
        },
        "meters": {
            "estimated_diameter_min": 880.1465209007,
            "estimated_diameter_max": 1968.067450894
        },
        "miles": {
            "estimated_diameter_min": 0.5468975238,
            "estimated_diameter_max": 1.22290004
        },
        "feet": {
            "estimated_diameter_min": 2887.6199116319,
            "estimated_diameter_max": 6456.914415591
        }
    },
    "is_potentially_hazardous_asteroid": false,
    "close_approach_data": [
        {
            "close_approach_date": "1990-01-29",
            "close_approach_date_full": "1990-Jan-29 14:26",
            "epoch_date_close_approach": 633623160000,
            "relative_velocity": {
                "kilometers_per_second": "31.7142839117",
                "kilometers_per_hour": "114171.4220822287",
                "miles_per_hour": "70941.6816821493"
            },
            "miss_distance": {
                "astronomical": "0.0438012157",
                "lunar": "17.0386729073",
                "kilometers": "6552568.572130559",
                "miles": "4071577.3091733542"
            },
            "orbiting_body": "Mars"
        },
        {
            "close_approach_date": "2000-05-18",
            "close_approach_date_full": "2000-May-18 08:38",
            "epoch_date_close_approach": 958639080000,
            "relative_velocity": {
                "kilometers_per_second": "35.6260475258",
                "kilometers_per_hour": "128253.7710927493",
                "miles_per_hour": "79691.9057103808"
            },
            "miss_distance": {
                "astronomical": "0.1893328373",
                "lunar": "73.6504737097",
                "kilometers": "28323789.181136551",
                "miles": "17599586.4934883638"
            },
            "orbiting_body": "Earth"
        }
    ],
    "orbital_data": {
        "orbit_id": "11",
        "orbit_determination_date": "2017-04-06 09:16:59",
        "first_observation_date": "2000-05-28",
        "last_observation_date": "2000-07-18",
        "data_arc_in_days": 51,
        "observations_used": 160,
        "orbit_uncertainty": "6",
        "minimum_orbit_intersection": ".180539",
        "jupiter_tisserand_invariant": "2.220",
        "epoch_osculation": "2459000.5",
        "eccentricity": ".8667627371569063",
        "semi_major_axis": "2.996707473762485",
        "inclination": "50.31689637726876",
        "ascending_node_longitude": "64.76761748174144",
        "orbital_period": "1894.806881582794",
        "perihelion_distance": ".3992731013455554",
        "perihelion_argument": "57.00672218022207",
        "aphelion_distance": "5.594141846179414",
        "perihelion_time": "2459215.573380082875",
        "mean_anomaly": "319.137568275476",
        "mean_motion": ".189992976856449",
        "equinox": "J2000",
        "orbit_class": {
            "orbit_class_type": "APO",
            "orbit_class_description": "Near-Earth asteroid orbits which cross the Earth’s orbit similar to that of 1862 Apollo",
            "orbit_class_range": "a (semi-major axis) > 1.0 AU; q (perihelion) < 1.017 AU"
        }
    },
    "is_sentry_object": false
}